H1 CPF  1  MCC 2022  6 17 12  6681 larets
H2  0304206 5557    27944 2022 06 16 23 45 00 2022 06 21 23 57 00   180 1 1  0 0 0
H9
10 0 59750 39420.000000 0     -4114726.865     -3522227.806      4531892.999
10 0 59750 39600.000000 0     -3593844.020     -2669756.052      5461281.813
10 0 59750 39780.000000 0     -2919071.068     -1736071.550      6191007.753
10 0 59750 39960.000000 0     -2113362.461      -758862.856      6694601.550
10 0 59750 40140.000000 0     -1205355.341       223351.174      6953848.745
10 0 59750 40320.000000 0      -228335.054      1172733.098      6959395.356
10 0 59750 40500.000000 0       780979.443      2053566.939      6711056.005
10 0 59750 40680.000000 0      1783801.839      2833589.042      6217818.284
10 0 59750 40860.000000 0      2740752.467      3485163.634      5497541.789
10 0 59750 41040.000000 0      3613396.786      3986272.805      4576359.257
10 0 59750 41220.000000 0      4365795.302      4321283.690      3487777.517
10 0 59750 41400.000000 0      4966005.129      4481464.332      2271502.690
10 0 59750 41580.000000 0      5387467.324      4465218.132       972005.131
10 0 59750 41760.000000 0      5610204.148      4278018.842      -363119.120
10 0 59750 41940.000000 0      5621761.006      3932043.394     -1684931.706
10 0 59750 42120.000000 0      5417837.823      3445518.871     -2944994.135
10 0 59750 42300.000000 0      5002579.685      2841819.459     -4097185.282
10 0 59750 42480.000000 0      4388513.919      2148365.304     -5099416.836
10 0 59750 42660.000000 0      3596137.624      1395376.334     -5915171.969
10 0 59750 42840.000000 0      2653186.004       614551.524     -6514806.999
10 0 59750 43020.000000 0      1593619.555      -162263.021     -6876582.093
10 0 59750 43200.000000 0       456380.348      -904362.311     -6987399.621
10 0 59750 43380.000000 0      -716041.814     -1583382.808     -6843243.146
10 0 59750 43560.000000 0     -1879183.543     -2174372.054     -6449309.407
10 0 59750 43740.000000 0     -2988276.761     -2656700.178     -5819838.315
10 0 59750 43920.000000 0     -3999960.474     -3014784.630     -4977639.353
10 0 59750 44100.000000 0     -4873987.647     -3238608.299     -3953320.052
10 0 59750 44280.000000 0     -5574859.345     -3324005.645     -2784218.334
10 0 59750 44460.000000 0     -6073313.958     -3272701.204     -1513066.331
10 0 59750 44640.000000 0     -6347596.871     -3092094.048      -186424.144
10 0 59750 44820.000000 0     -6384441.737     -2794794.436      1147056.460
10 0 59750 45000.000000 0     -6179707.201     -2397933.650      2438467.367
10 0 59750 45180.000000 0     -5738625.505     -1922281.136      3640492.326
10 0 59750 45360.000000 0     -5075657.595     -1391219.162      4709178.490
10 0 59750 45540.000000 0     -4213962.773      -829629.358      5605554.419
10 0 59750 45720.000000 0     -3184528.307      -262754.055      6297028.056
10 0 59750 45900.000000 0     -2025002.133       284916.599      6758532.610
10 0 59750 46080.000000 0      -778278.117       790680.614      6973382.646
10 0 59750 46260.000000 0       509100.238      1234543.874      6933829.728
10 0 59750 46440.000000 0      1788664.369      1599997.263      6641316.289
10 0 59750 46620.000000 0      3011824.814      1874625.863      6106425.666
10 0 59750 46800.000000 0      4131702.356      2050530.250      5348530.091
10 0 59750 46980.000000 0      5104929.231      2124548.189      4395136.735
10 0 59750 47160.000000 0      5893357.723      2098271.441      3280943.520
10 0 59750 47340.000000 0      6465609.610      1977850.729      2046609.748
10 0 59750 47520.000000 0      6798383.404      1773595.364       737283.478
10 0 59750 47700.000000 0      6877457.335      1499383.509      -599068.330
10 0 59750 47880.000000 0      6698324.198      1171912.276     -1913458.869
10 0 59750 48060.000000 0      6266422.744       809821.551     -3157725.214
10 0 59750 48240.000000 0      5596954.941       432740.481     -4286336.404
10 0 59750 48420.000000 0      4714295.985        60310.361     -5258083.847
10 0 59750 48600.000000 0      3651037.660      -288766.878     -6037577.945
10 0 59750 48780.000000 0      2446725.097      -597606.688     -6596504.563
10 0 59750 48960.000000 0      1146342.289      -851909.725     -6914606.565
10 0 59750 49140.000000 0      -201384.062     -1040589.084     -6980369.381
10 0 59750 49320.000000 0     -1545805.301     -1156233.570     -6791405.613
10 0 59750 49500.000000 0     -2836236.554     -1195393.531     -6354534.762
10 0 59750 49680.000000 0     -4023850.313     -1158680.568     -5685555.660
10 0 59750 49860.000000 0     -5063522.009     -1050679.746     -4808721.763
10 0 59750 50040.000000 0     -5915573.361      -879676.011     -3755915.296
10 0 59750 50220.000000 0     -6547340.162      -657203.834     -2565532.346
10 0 59750 50400.000000 0     -6934494.766      -397435.836     -1281103.065
10 0 59750 50580.000000 0     -7062053.188      -116437.706        50309.896
10 0 59750 50760.000000 0     -6925002.621       168677.974      1379876.074
10 0 59750 50940.000000 0     -6528512.301       440650.744      2658838.062
10 0 59750 51120.000000 0     -5887719.322       682975.593      3840350.797
10 0 59750 51300.000000 0     -5027096.749       880764.182      4881232.250
10 0 59750 51480.000000 0     -3979447.534      1021517.660      5743545.006
10 0 59750 51660.000000 0     -2784587.962      1095774.079      6395952.523
10 0 59750 51840.000000 0     -1487784.957      1097602.820      6814815.772
10 0 59750 52020.000000 0      -138011.752      1024928.143      6984998.072
10 0 59750 52200.000000 0      1213901.076       879669.244      6900364.635
10 0 59750 52380.000000 0      2517159.408       667693.951      6563982.843
10 0 59750 52560.000000 0      3722892.833       398588.054      5988021.267
10 0 59750 52740.000000 0      4785981.826        85245.837      5193345.192
10 0 59750 52920.000000 0      5666762.716      -256706.375      4208809.957
10 0 59750 53100.000000 0      6332551.125      -609633.172      3070263.341
10 0 59750 53280.000000 0      6758920.296      -954729.103      1819272.363
10 0 59750 53460.000000 0      6930663.380     -1272938.455       501609.914
10 0 59750 53640.000000 0      6842391.924     -1545911.758      -834440.260
10 0 59750 53820.000000 0      6498729.486     -1756948.895     -2139898.615
10 0 59750 54000.000000 0      5914082.066     -1891876.351     -3366936.416
10 0 59750 54180.000000 0      5112001.204     -1939812.642     -4470667.423
10 0 59750 54360.000000 0      4124181.503     -1893781.885     -5410806.209
10 0 59750 54540.000000 0      2989146.765     -1751148.565     -6153128.976
10 0 59750 54720.000000 0      1750695.398     -1513854.291     -6670681.998
10 0 59750 54900.000000 0       456182.032     -1188447.322     -6944713.316
10 0 59750 55080.000000 0      -845300.757      -785908.770     -6965305.844
10 0 59750 55260.000000 0     -2104772.099      -321282.463     -6731707.029
10 0 59750 55440.000000 0     -3275188.874       186882.162     -6252352.946
10 0 59750 55620.000000 0     -4313189.404       717256.367     -5544587.698
10 0 59750 55800.000000 0     -5180709.456      1246605.203     -4634084.593
10 0 59750 55980.000000 0     -5846415.971      1750780.509     -3553969.189
10 0 59750 56160.000000 0     -6286897.363      2205798.066     -2343654.035
10 0 59750 56340.000000 0     -6487551.531      2588946.115     -1047416.087
10 0 59750 56520.000000 0     -6443124.692      2879874.428       287237.619
10 0 59750 56700.000000 0     -6157862.278      3061604.844      1611353.826
10 0 59750 56880.000000 0     -5645255.555      3121408.989      2876382.718
10 0 59750 57060.000000 0     -4927400.659      3051505.042      4036005.935
10 0 59750 57240.000000 0     -4034008.603      2849536.407      5047861.363
10 0 59750 57420.000000 0     -3001124.385      2518812.166      5875088.274
10 0 59750 57600.000000 0     -1869626.578      2068305.677      6487643.011
10 0 59750 57780.000000 0      -683574.395      1512411.385      6863343.539
10 0 59750 57960.000000 0       511518.353       870473.710      6988616.211
10 0 59750 58140.000000 0      1670416.447       166109.427      6858944.754
10 0 59750 58320.000000 0      2749854.713      -573654.035      6479018.894
10 0 59750 58500.000000 0      3710138.285     -1319401.898      5862581.795
10 0 59750 58680.000000 0      4516606.109     -2040486.318      5031972.185
10 0 59750 58860.000000 0      5140904.845     -2706274.145      4017364.474
10 0 59750 59040.000000 0      5562029.884     -3287443.192      2855721.511
10 0 59750 59220.000000 0      5767083.899     -3757272.358      1589473.374
10 0 59750 59400.000000 0      5751707.804     -4092863.464       264967.946
10 0 59750 59580.000000 0      5520161.490     -4276232.320     -1069251.499
10 0 59750 59760.000000 0      5085043.232     -4295207.973     -2364271.646
10 0 59750 59940.000000 0      4466657.198     -4144088.745     -3572652.987
10 0 59750 60120.000000 0      3692064.649     -3824022.703     -4650205.192
10 0 59750 60300.000000 0      2793872.590     -3343094.562     -5557616.443
10 0 59750 60480.000000 0      1808827.850     -2716120.631     -6261869.933
10 0 59750 60660.000000 0       776291.764     -1964172.030     -6737405.140
10 0 59750 60840.000000 0      -263343.168     -1113843.748     -6967001.114
10 0 59750 61020.000000 0     -1270229.212      -196300.412     -6942353.378
10 0 59750 61200.000000 0     -2206575.157       753861.613     -6664347.387
10 0 59750 61380.000000 0     -3038051.004      1699903.893     -6143027.684
10 0 59750 61560.000000 0     -3735041.286      2604349.777     -5397266.289
10 0 59750 61740.000000 0     -4273716.341      3430462.750     -4454132.099
10 0 59750 61920.000000 0     -4636880.207      4143747.447     -3347956.766
10 0 59750 62100.000000 0     -4814551.642      4713409.503     -2119120.108
10 0 59750 62280.000000 0     -4804254.461      5113708.029      -812588.579
99
